{"type": "FeatureCollection", "features": [ {"type": "Feature", "properties": {"norad_id": 31182, "name": "FENGYUN 1C DEB", "group": "fengyun-1c-debris", "lat": 31.26040997062032, "lon": 172.72349102975608, "alt_km": 830.043701072721, "timestamp": "2025-12-24T20:42:21.307642+00:00", "meta": {"OBJECT_NAME": "FENGYUN 1C DEB", "OBJECT_ID": "1999-025BJL", "EPOCH": "2025-12-22T19:20:53.254752", "MEAN_MOTION": 14.1456637, "ECCENTRICITY": 0.00235309, "INCLINATION": 98.6826, "RA_OF_ASC_NODE": 345.4013, "ARG_OF_PERICENTER": 108.6535, "MEAN_ANOMALY": 12.2806, "EPHEMERIS_TYPE": 0, "CLASSIFICATION_TYPE": "U", "NORAD_CAT_ID": 31182, "ELEMENT_SET_NO": 999, "REV_AT_EPOCH": 96223, "BSTAR": 0.00031151956, "MEAN_MOTION_DOT": 5.57e-06, "MEAN_MOTION_DDOT": 0}, "tle": {"line1": "1 31182U 99025BJL 25356.80617193  .00000557  00000+0  31152-3 0  9997", "line2": "2 31182  98.6826 345.4013 0023530 108.6535  12.2806 14.14566370962235"}}, "geometry": {"type": "Point", "coordinates": [172.72349102975608, 31.26040997062032]}}, {"type": "Feature", "properties": {"norad_id": 31183, "name": "FENGYUN 1C DEB", "group": "fengyun-1c-debris", "lat": -6.563981744433836, "lon": 162.43255761570163, "alt_km": 741.6931842745134, "timestamp": "2025-12-24T20:42:21.307652+00:00", "meta": {"OBJECT_NAME": "FENGYUN 1C DEB", "OBJECT_ID": "1999-025BJM", "EPOCH": "2025-12-24T05:01:19.257888", "MEAN_MOTION": 14.50537461, "ECCENTRICITY": 0.00478501, "INCLINATION": 99.0375, "RA_OF_ASC_NODE": 342.7809, "ARG_OF_PERICENTER": 73.7947, "MEAN_ANOMALY": 301.6707, "EPHEMERIS_TYPE": 0, "CLASSIFICATION_TYPE": "U", "NORAD_CAT_ID": 31183, "ELEMENT_SET_NO": 999, "REV_AT_EPOCH": 97649, "BSTAR": 0.0013979747, "MEAN_MOTION_DOT": 5.508e-05, "MEAN_MOTION_DDOT": 0}, "tle": {"line1": "1 31183U 99025BJM 25358.20925067  .00005508  00000+0  13980-2 0  9995", "line2": "2 31183  99.0375 342.7809 0047850  73.7947 301.6707 14.50537461976490"}}, "geometry": {"type": "Point", "coordinates": [162.43255761570163, -6.563981744433836]}}, {"type": "Feature", "properties": {"norad_id": 31185, "name": "FENGYUN 1C DEB", "group": "fengyun-1c-debris", "lat": -46.51736697765711, "lon": 165.53873115297137, "alt_km": 917.1290091343735, "timestamp": "2025-12-24T20:42:21.307662+00:00", "meta": {"OBJECT_NAME": "FENGYUN 1C DEB", "OBJECT_ID": "1999-025BJP", "EPOCH": "2025-12-03T06:44:56.905152", "MEAN_MOTION": 14.03019915, "ECCENTRICITY": 0.0041359, "INCLINATION": 98.8321, "RA_OF_ASC_NODE": 334.0356, "ARG_OF_PERICENTER": 132.5488, "MEAN_ANOMALY": 227.9182, "EPHEMERIS_TYPE": 0, "CLASSIFICATION_TYPE": "U", "NORAD_CAT_ID": 31185, "ELEMENT_SET_NO": 999, "REV_AT_EPOCH": 62204, "BSTAR": 0.0004459, "MEAN_MOTION_DOT": 6.55e-06, "MEAN_MOTION_DDOT": 0}, "tle": {"line1": "1 31185U 99025BJP 25337.28121418  .00000655  00000+0  44590-3 0  9990", "line2": "2 31185  98.8321 334.0356 0041359 132.5488 227.9182 14.03019915622046"}}, "geometry": {"type": "Point", "coordinates": [165.53873115297137, -46.51736697765711]}}, {"type": "Feature", "properties": {"norad_id": 31186, "name": "FENGYUN 1C DEB", "group": "fengyun-1c-debris", "lat": 57.37775985374669, "lon": 109.1552435759955, "alt_km": 844.2722747097005, "timestamp": "2025-12-24T20:42:21.307675+00:00", "meta": {"OBJECT_NAME": "FENGYUN 1C DEB", "OBJECT_ID": "1999-025BJQ", "EPOCH": "2025-12-21T13:06:21.566016", "MEAN_MOTION": 14.12920927, "ECCENTRICITY": 0.0026334, "INCLINATION": 99.1789, "RA_OF_ASC_NODE": 271.1249, "ARG_OF_PERICENTER": 39.1426, "MEAN_ANOMALY": 140.9615, "EPHEMERIS_TYPE": 0, "CLASSIFICATION_TYPE": "U", "NORAD_CAT_ID": 31186, "ELEMENT_SET_NO": 999, "REV_AT_EPOCH": 96229, "BSTAR": 0.00037163, "MEAN_MOTION_DOT": 6.48e-06, "MEAN_MOTION_DDOT": 0}, "tle": {"line1": "1 31186U 99025BJQ 25355.54608294  .00000648  00000+0  37163-3 0  9992", "line2": "2 31186  99.1789 271.1249 0026334  39.1426 140.9615 14.12920927962294"}}, "geometry": {"type": "Point", "coordinates": [109.1552435759955, 57.37775985374669]}}, {"type": "Feature", "properties": {"norad_id": 31187, "name": "FENGYUN 1C DEB", "group": "fengyun-1c-debris", "lat": -66.41738563532844, "lon": 21.7955375677617, "alt_km": 624.0417876825531, "timestamp": "2025-12-24T20:42:21.307685+00:00", "meta": {"OBJECT_NAME": "FENGYUN 1C DEB", "OBJECT_ID": "1999-025BJR", "EPOCH": "2025-12-21T10:58:01.324992", "MEAN_MOTION": 14.59636852, "ECCENTRICITY": 0.02193421, "INCLINATION": 99.2407, "RA_OF_ASC_NODE": 219.8994, "ARG_OF_PERICENTER": 197.2347, "MEAN_ANOMALY": 162.132, "EPHEMERIS_TYPE": 0, "CLASSIFICATION_TYPE": "U", "NORAD_CAT_ID": 31187, "ELEMENT_SET_NO": 999, "REV_AT_EPOCH": 69227, "BSTAR": 0.0019708223, "MEAN_MOTION_DOT": 0.0001311, "MEAN_MOTION_DDOT": 0}, "tle": {"line1": "1 31187U 99025BJR 25355.45695978  .00013110  00000+0  19708-2 0  9990", "line2": "2 31187  99.2407 219.8994 0219342 197.2347 162.1320 14.59636852692279"}}, "geometry": {"type": "Point", "coordinates": [21.7955375677617, -66.41738563532844]}}, {"type": "Feature", "properties": {"norad_id": 31188, "name": "FENGYUN 1C DEB", "group": "fengyun-1c-debris", "lat": -73.5572864757569, "lon": 98.03482145632192, "alt_km": 803.9111221772127, "timestamp": "2025-12-24T20:42:21.307697+00:00", "meta": {"OBJECT_NAME": "FENGYUN 1C DEB", "OBJECT_ID": "1999-025BJS", "EPOCH": "2025-12-22T20:28:29.943840", "MEAN_MOTION": 14.23887484, "ECCENTRICITY": 0.0060762, "INCLINATION": 98.7475, "RA_OF_ASC_NODE": 64.5893, "ARG_OF_PERICENTER": 220.3553, "MEAN_ANOMALY": 207.4513, "EPHEMERIS_TYPE": 0, "CLASSIFICATION_TYPE": "U", "NORAD_CAT_ID": 31188, "ELEMENT_SET_NO": 999, "REV_AT_EPOCH": 96480, "BSTAR": 0.0015869, "MEAN_MOTION_DOT": 3.662e-05, "MEAN_MOTION_DDOT": 0}, "tle": {"line1": "1 31188U 99025BJS 25356.85312435  .00003662  00000+0  15869-2 0  9995", "line2": "2 31188  98.7475  64.5893 0060762 220.3553 207.4513 14.23887484964807"}}, "geometry": {"type": "Point", "coordinates": [98.03482145632192, -73.5572864757569]}}, {"type": "Feature", "properties": {"norad_id": 31190, "name": "FENGYUN 1C DEB", "group": "fengyun-1c-debris", "lat": -76.64409986332572, "lon": 52.058033397718155, "alt_km": 859.8731738803199, "timestamp": "2025-12-24T20:42:21.307707+00:00", "meta": {"OBJECT_NAME": "FENGYUN 1C DEB", "OBJECT_ID": "1999-025BJU", "EPOCH": "2025-12-15T23:14:05.075520", "MEAN_MOTION": 14.03609027, "ECCENTRICITY": 0.00676763, "INCLINATION": 98.819, "RA_OF_ASC_NODE": 2.5971, "ARG_OF_PERICENTER": 250.3103, "MEAN_ANOMALY": 109.0754, "EPHEMERIS_TYPE": 0, "CLASSIFICATION_TYPE": "U", "NORAD_CAT_ID": 31190, "ELEMENT_SET_NO": 999, "REV_AT_EPOCH": 95592, "BSTAR": 0.00091857664, "MEAN_MOTION_DOT": 1.428e-05, "MEAN_MOTION_DDOT": 0}, "tle": {"line1": "1 31190U 99025BJU 25349.96811430  .00001428  00000+0  91858-3 0  9992", "line2": "2 31190  98.8190   2.5971 0067676 250.3103 109.0754 14.03609027955929"}}, "geometry": {"type": "Point", "coordinates": [52.058033397718155, -76.64409986332572]}}, {"type": "Feature", "properties": {"norad_id": 31191, "name": "FENGYUN 1C DEB", "group": "fengyun-1c-debris", "lat": -27.468026942193724, "lon": -95.3109814742294, "alt_km": 827.4049432614092, "timestamp": "2025-12-24T20:42:21.307717+00:00", "meta": {"OBJECT_NAME": "FENGYUN 1C DEB", "OBJECT_ID": "1999-025BJV", "EPOCH": "2025-12-24T04:10:12.629856", "MEAN_MOTION": 14.40814841, "ECCENTRICITY": 0.00928303, "INCLINATION": 98.7828, "RA_OF_ASC_NODE": 259.3718, "ARG_OF_PERICENTER": 160.3538, "MEAN_ANOMALY": 200.1265, "EPHEMERIS_TYPE": 0, "CLASSIFICATION_TYPE": "U", "NORAD_CAT_ID": 31191, "ELEMENT_SET_NO": 999, "REV_AT_EPOCH": 98177, "BSTAR": 0.00029828966, "MEAN_MOTION_DOT": 9.57e-06, "MEAN_MOTION_DDOT": 0}, "tle": {"line1": "1 31191U 99025BJV 25358.17375729  .00000957  00000+0  29829-3 0  9997", "line2": "2 31191  98.7828 259.3718 0092830 160.3538 200.1265 14.40814841981775"}}, "geometry": {"type": "Point", "coordinates": [-95.3109814742294, -27.468026942193724]}}, {"type": "Feature", "properties": {"norad_id": 31192, "name": "FENGYUN 1C DEB", "group": "fengyun-1c-debris", "lat": 81.42696456231128, "lon": -111.09113794199662, "alt_km": 640.3052350285261, "timestamp": "2025-12-24T20:42:21.307727+00:00", "meta": {"OBJECT_NAME": "FENGYUN 1C DEB", "OBJECT_ID": "1999-025BJW", "EPOCH": "2025-12-24T05:05:25.782144", "MEAN_MOTION": 14.20981381, "ECCENTRICITY": 0.02596347, "INCLINATION": 98.5539, "RA_OF_ASC_NODE": 341.5484, "ARG_OF_PERICENTER": 70.5745, "MEAN_ANOMALY": 292.3294, "EPHEMERIS_TYPE": 0, "CLASSIFICATION_TYPE": "U", "NORAD_CAT_ID": 31192, "ELEMENT_SET_NO": 999, "REV_AT_EPOCH": 96906, "BSTAR": 0.00034887219, "MEAN_MOTION_DOT": 1.018e-05, "MEAN_MOTION_DDOT": 0}, "tle": {"line1": "1 31192U 99025BJW 25358.21210396  .00001018  00000+0  34887-3 0  9990", "line2": "2 31192  98.5539 341.5484 0259634  70.5745 292.3294 14.20981381969061"}}, "geometry": {"type": "Point", "coordinates": [-111.09113794199662, 81.42696456231128]}}, {"type": "Feature", "properties": {"norad_id": 31194, "name": "FENGYUN 1C DEB", "group": "fengyun-1c-debris", "lat": -20.29059233243499, "lon": -108.22844153005603, "alt_km": 778.8077136309021, "timestamp": "2025-12-24T20:42:21.307737+00:00", "meta": {"OBJECT_NAME": "FENGYUN 1C DEB", "OBJECT_ID": "1999-025BJY", "EPOCH": "2025-12-23T23:04:22.744704", "MEAN_MOTION": 14.36707795, "ECCENTRICITY": 0.0056827, "INCLINATION": 98.9636, "RA_OF_ASC_NODE": 247.4882, "ARG_OF_PERICENTER": 245.846, "MEAN_ANOMALY": 113.6777, "EPHEMERIS_TYPE": 0, "CLASSIFICATION_TYPE": "U", "NORAD_CAT_ID": 31194, "ELEMENT_SET_NO": 999, "REV_AT_EPOCH": 97288, "BSTAR": 0.00091643, "MEAN_MOTION_DOT": 2.704e-05, "MEAN_MOTION_DDOT": 0}, "tle": {"line1": "1 31194U 99025BJY 25357.96137436  .00002704  00000+0  91643-3 0  9992", "line2": "2 31194  98.9636 247.4882 0056827 245.8460 113.6777 14.36707795972888"}}, "geometry": {"type": "Point", "coordinates": [-108.22844153005603, -20.29059233243499]}}]}